NORAD_CAT_ID,OBJECT_NAME,OBJECT_TYPE,EPOCH,MEAN_MOTION,ECCENTRICITY,INCLINATION,RA_OF_ASC_NODE,ARG_OF_PERICENTER,MEAN_ANOMALY,BSTAR,MEAN_MOTION_DOT,MEAN_MOTION_DDOT,TLE_LINE0,TLE_LINE1,TLE_LINE2,SEMIMAJOR_AXIS,PERIOD,APOGEE,PERIGEE,DECAYED
51961.0,STARLINK-3689,PAYLOAD,2022-11-06 11:02:56,15.08814431,0.0001734,53.217,102.4601,57.3544,302.7615,-0.00030052,-5.064e-05,0.0,0 STARLINK-3689,1 51961U 22025F   22310.46037849 -.00005064  00000-0 -30052-3 0  9992,2 51961  53.2170 102.4601 0001734  57.3544 302.7615 15.08814431 37132,6917.959,95.439,541.023,538.624,0.0
51961.0,STARLINK-3689,PAYLOAD,2022-11-07 02:56:48,15.08830593,0.0001662,53.2174,99.4867,47.904,312.2094,0.00012162,1.648e-05,0.0,0 STARLINK-3689,1 51961U 22025F   22311.12278217  .00001648  00000-0  12162-3 0  9996,2 51961  53.2174  99.4867 0001662  47.9040 312.2094 15.08830593 38349,6917.909000000002,95.438,540.924,538.624,0.0
51961.0,STARLINK-3689,PAYLOAD,2022-11-07 15:39:53,15.08840306,0.0001838,53.2169,97.1082,40.0789,320.0339,0.00045033,6.886e-05,0.0,0 STARLINK-3689,1 51961U 22025F   22311.65270425  .00006886  00000-0  45033-3 0  9999,2 51961  53.2169  97.1082 0001838  40.0789 320.0339 15.08840306 37314,6917.879,95.438,541.016,538.4730000000002,0.0
51961.0,STARLINK-3689,PAYLOAD,2022-11-08 09:09:06,15.08867126,0.0001861,53.2171,93.8372,37.0785,323.0336,0.00093398,0.00014619,0.0,0 STARLINK-3689,1 51961U 22025F   22312.38133009  .00014619  00000-0  93398-3 0  9996,2 51961  53.2171  93.8372 0001861  37.0785 323.0336 15.08867126 38534,6917.797,95.436,540.95,538.375,0.0
51961.0,STARLINK-3689,PAYLOAD,2022-11-08 17:06:01,15.08890409,0.0001485,53.2162,92.349,37.2362,322.8733,0.0006303,9.771e-05,0.0,0 STARLINK-3689,1 51961U 22025F   22312.71251648  .00009771  00000-0  63030-3 0  9996,2 51961  53.2162  92.3490 0001485  37.2362 322.8733 15.08890409 38587,6917.726,95.434,540.619,538.564,0.0
51961.0,STARLINK-3689,PAYLOAD,2022-11-09 13:46:01,15.08842357,0.000241,53.2163,88.4862,26.172,333.9393,-0.00091315,-0.00014793,0.0,0 STARLINK-3689,1 51961U 22025F   22313.57362645 -.00014793  00000-0 -91315-3 0  9990,2 51961  53.2163  88.4862 0002410  26.1720 333.9393 15.08842357 37607,6917.873000000001,95.437,541.405,538.071,0.0
51961.0,STARLINK-3689,PAYLOAD,2022-11-09 16:56:48,15.08825869,0.0002045,53.216,87.8908,36.6187,323.4944,-0.001135,-0.000183,0.0,0 STARLINK-3689,1 51961U 22025F   22313.70611430 -.00018300  00000-0 -11350-2 0  9992,2 51961  53.2160  87.8908 0002045  36.6187 323.4944 15.08825869 38735,6917.924,95.438,541.203,538.374,0.0
51961.0,STARLINK-3689,PAYLOAD,2022-11-10 13:36:50,15.08836052,0.0002221,53.2165,84.0255,35.3681,324.7458,0.0012055999999999,0.00018949,0.0,0 STARLINK-3689,1 51961U 22025F   22314.56724775  .00018949  00000-0  12056-2 0  9995,2 51961  53.2165  84.0255 0002221  35.3681 324.7458 15.08836052 37756,6917.892,95.438,541.294,538.221,0.0
51961.0,STARLINK-3689,PAYLOAD,2022-11-10 15:12:13,15.0884003,0.0002227,53.2173,83.7283,38.5322,321.5829,0.0018589,0.00029421,0.0,0 STARLINK-3689,1 51961U 22025F   22314.63348913  .00029421  00000-0  18589-2 0  9993,2 51961  53.2173  83.7283 0002227  38.5322 321.5829 15.08840030 38877,6917.88,95.438,541.286,538.205,0.0
51961.0,STARLINK-3689,PAYLOAD,2022-11-11 11:52:13,15.08850053,0.0002554,53.2176,79.8639,26.2431,333.869,0.0011921,0.00018741,0.0,0 STARLINK-3689,1 51961U 22025F   22315.49460614  .00018741  00000-0  11921-2 0  9997,2 51961  53.2176  79.8639 0002554  26.2431 333.8690 15.08850053 37898,6917.85,95.437,541.481,537.948,0.0
51961.0,STARLINK-3689,PAYLOAD,2022-11-11 13:27:37,15.08851386,0.0002506,53.2176,79.5667,32.2523,327.8622,0.0012746,0.00020062,0.0,0 STARLINK-3689,1 51961U 22025F   22315.56084544  .00020062  00000-0  12746-2 0  9994,2 51961  53.2176  79.5667 0002506  32.2523 327.8622 15.08851386 39016,6917.846,95.437,541.444,537.977,0.0
51961.0,STARLINK-3689,PAYLOAD,2022-11-11 15:03:00,15.08853853,0.0002213,53.218,79.2682,39.9972,320.1183,0.0013907,0.00021923,0.0,0 STARLINK-3689,1 51961U 22025F   22315.62708406  .00021923  00000-0  13907-2 0  9998,2 51961  53.2180  79.2682 0002213  39.9972 320.1183 15.08853853 37918,6917.8380000000025,95.437,541.234,538.172,0.0
51961.0,STARLINK-3689,PAYLOAD,2022-11-12 13:18:23,15.08842564,0.0002209,53.218,75.1046,35.1945,324.9193,-1.7853e-05,-5.72e-06,0.0,0 STARLINK-3689,1 51961U 22025F   22316.55444058 -.00000572  00000-0 -17853-4 0  9996,2 51961  53.2180  75.1046 0002209  35.1945 324.9193 15.08842564 39169,6917.873000000001,95.437,541.266,538.2090000000002,0.0
51961.0,STARLINK-3689,PAYLOAD,2022-11-12 14:53:46,15.08845997,0.0002154,53.2179,74.8073,36.5393,323.5746,8.643899999999999e-05,1.088e-05,0.0,0 STARLINK-3689,1 51961U 22025F   22316.62068028  .00001088  00000-0  86439-4 0  9990,2 51961  53.2179  74.8073 0002154  36.5393 323.5746 15.08845997 38064,6917.861999999999,95.437,541.217,538.237,0.0
51961.0,STARLINK-3689,PAYLOAD,2022-11-13 11:33:47,15.08834609,0.0002151,53.2182,70.9417,39.9467,320.1683,-0.00014897,-2.658e-05,0.0,0 STARLINK-3689,1 51961U 22025F   22317.48180098 -.00002658  00000-0 -14897-3 0  9991,2 51961  53.2182  70.9417 0002151  39.9467 320.1683 15.08834609 38198,6917.897,95.438,541.25,538.274,0.0
51961.0,STARLINK-3689,PAYLOAD,2022-11-13 14:44:33,15.0883542,0.0001974,53.2182,70.3464,43.4429,316.6718,-0.0001486999999999,-2.654e-05,0.0,0 STARLINK-3689,1 51961U 22025F   22317.61427958 -.00002654  00000-0 -14870-3 0  9992,2 51961  53.2182  70.3464 0001974  43.4429 316.6718 15.08835420 39321,6917.894,95.438,541.125,538.394,0.0
51961.0,STARLINK-3689,PAYLOAD,2022-11-14 00:16:53,15.08826915,0.0002153,53.2176,68.5625,38.5019,321.6126,-0.00020692,-3.579e-05,0.0,0 STARLINK-3689,1 51961U 22025F   22318.01172638 -.00003579  00000-0 -20692-3 0  9995,2 51961  53.2176  68.5625 0002153  38.5019 321.6126 15.08826915 39386,6917.92,95.438,541.275,538.2959999999998,0.0
51961.0,STARLINK-3689,PAYLOAD,2022-11-14 11:24:35,15.08836932,0.0002369,53.2175,66.4809,28.2735,331.8385,0.00012176,1.65e-05,0.0,0 STARLINK-3689,1 51961U 22025F   22318.47540647  .00001650  00000-0  12176-3 0  9998,2 51961  53.2175  66.4809 0002369  28.2735 331.8385 15.08836932 38341,6917.89,95.438,541.394,538.116,0.0
51961.0,STARLINK-3689,PAYLOAD,2022-11-14 16:10:44,15.08849704,0.0002242,53.2178,65.5893,34.0391,326.0745,0.00045536,6.968e-05,0.0,0 STARLINK-3689,1 51961U 22025F   22318.67412335  .00006968  00000-0  45536-3 0  9995,2 51961  53.2178  65.5893 0002242  34.0391 326.0745 15.08849704 38370,6917.851,95.437,541.2669999999998,538.165,0.0
51961.0,STARLINK-3689,PAYLOAD,2022-11-15 06:29:12,15.08846325,0.0002218,53.2173,62.9133,35.4288,324.6851,0.00034432,5.197e-05,0.0,0 STARLINK-3689,1 51961U 22025F   22319.27028454  .00005197  00000-0  34432-3 0  9993,2 51961  53.2173  62.9133 0002218  35.4288 324.6851 15.08846325 39577,6917.861,95.437,541.26,538.192,0.0
51961.0,STARLINK-3689,PAYLOAD,2022-11-15 12:50:45,15.08837719,0.0002242,53.2177,61.7237,36.2127,323.9017,0.00017854,2.554e-05,0.0,0 STARLINK-3689,1 51961U 22025F   22319.53524744  .00002554  00000-0  17854-3 0  9998,2 51961  53.2177  61.7237 0002242  36.2127 323.9017 15.08837719 38506,6917.887,95.438,541.303,538.201,0.0
51961.0,STARLINK-3689,PAYLOAD,2022-11-15 14:26:08,15.08838304,0.0002253,53.2179,61.427,36.1548,323.9597,0.00017605,2.515e-05,0.0,0 STARLINK-3689,1 51961U 22025F   22319.60148740  .00002515  00000-0  17605-3 0  9995,2 51961  53.2179  61.4270 0002253  36.1548 323.9597 15.08838304 39628,6917.886,95.438,541.309,538.192,0.0
51961.0,STARLINK-3689,PAYLOAD,2022-11-16 12:41:32,15.08833452,0.000235,53.2181,57.2631,36.4269,323.6883,8.5717e-06,-1.52e-06,0.0,0 STARLINK-3689,1 51961U 22025F   22320.52885360 -.00000152  00000-0  85717-5 0  9991,2 51961  53.2181  57.2631 0002350  36.4269 323.6883 15.08833452 39765,6917.9,95.438,541.391,538.14,0.0
51961.0,STARLINK-3689,PAYLOAD,2022-11-16 14:16:56,15.08831113,0.0002362,53.2182,56.9658,35.9949,324.1202,-0.00010609,-1.976e-05,0.0,0 STARLINK-3689,1 51961U 22025F   22320.59509527 -.00001976  00000-0 -10609-3 0  9998,2 51961  53.2182  56.9658 0002362  35.9949 324.1202 15.08831113 38664,6917.908,95.438,541.4069999999998,538.139,0.0
51961.0,STARLINK-3689,PAYLOAD,2022-11-17 12:32:20,15.08822348,0.0002336,53.2191,52.8026,38.0066,322.1091,0.00027825,4.141e-05,0.0,0 STARLINK-3689,1 51961U 22025F   22321.52246258  .00004141  00000-0  27825-3 0  9994,2 51961  53.2191  52.8026 0002336  38.0066 322.1091 15.08822348 38803,6917.934,95.439,541.415,538.183,0.0
51961.0,STARLINK-3689,PAYLOAD,2022-11-17 14:07:43,15.08835369,0.0002372,53.219,52.5053,36.2892,323.8261,7.7468e-05,9.45e-06,0.0,0 STARLINK-3689,1 51961U 22025F   22321.58869825  .00000945  00000-0  77468-4 0  9998,2 51961  53.2190  52.5053 0002372  36.2892 323.8261 15.08835369 39924,6917.895,95.438,541.4,538.119,0.0
51961.0,STARLINK-3689,PAYLOAD,2022-11-18 12:23:07,15.08838563,0.0002532,53.2188,48.343,36.3624,323.754,0.00018334,2.631e-05,0.0,0 STARLINK-3689,1 51961U 22025F   22322.51605865  .00002631  00000-0  18334-3 0  9994,2 51961  53.2188  48.3430 0002532  36.3624 323.7540 15.08838563 38955,6917.885,95.438,541.501,537.998,0.0
51961.0,STARLINK-3689,PAYLOAD,2022-11-19 05:52:21,15.08849298,0.0002491,53.219,45.0721,38.4075,321.7094,0.00020501,2.977e-05,0.0,0 STARLINK-3689,1 51961U 22025F   22323.24469020  .00002977  00000-0  20501-3 0  9998,2 51961  53.2190  45.0721 0002491  38.4075 321.7094 15.08849298 40178,6917.852,95.437,541.44,537.994,0.0
51961.0,STARLINK-3689,PAYLOAD,2022-11-19 15:24:40,15.08845993,0.0002595,53.2187,43.288,35.6781,324.4385,0.00014619,2.039e-05,0.0,0 STARLINK-3689,1 51961U 22025F   22323.64213253  .00002039  00000-0  14619-3 0  9999,2 51961  53.2187  43.2880 0002595  35.6781 324.4385 15.08845993 40236,6917.861999999999,95.437,541.5219999999998,537.932,0.0
